STARLINK-37284
1 68623U 26073X   26114.76816120  .00177830  00000+0  90754-3 0  9991
2 68623  97.2835 312.8669 0001272  89.8601 270.2813 15.80883364  2810
STARLINK-37231
1 68624U 26073Y   26114.53659868  .00141418  00000+0  93167-3 0  9995
2 68624  97.2856 312.5696 0001391  84.5034 275.6390 15.75232335  2779
STARLINK-37249
1 68625U 26073Z   26114.00704075  .00132062  00000+0  67881-3 0  9998
2 68625  97.2834 312.0659 0001613  65.8106 294.3331 15.80847987  2694
STARLINK-37285
1 68626U 26073AA  26114.53412969  .00109316  00000+0  72363-3 0  9992
2 68626  97.2854 312.5726 0001392  71.0820 289.0596 15.75215606  2777
STP-S29A OBJECT A
1 68627U 26074A   26113.99863215  .00006090  00000+0  26503-3 0  9997
2 68627  60.0197  26.1090 0017680 323.9749  36.0138 15.23329947  2526
MISR-C-1
1 68628U 26074B   26114.12879828  .00007041  00000+0  30386-3 0  9992
2 68628  60.0248  25.6162 0016202 327.0533  32.9536 15.23423068  2530
RAWHIDE-1
1 68629U 26074C   26114.18961926  .00008412  00000+0  35507-3 0  9993
2 68629  60.0231  25.3368 0019624 331.9352  28.0669 15.23896735  2552
STPSAT-7
1 68630U 26074D   26114.12097459  .00004523  00000+0  19545-3 0  9993
2 68630  60.0233  25.5736 0017788 336.5702  23.4566 15.24111520  2532
STP-S29A OBJECT E
1 68631U 26074E   26114.25209003  .00003106  00000+0  13795-3 0  9995
2 68631  60.0227  25.0676 0018375 336.5934  23.4308 15.24103045  2564
RAWHIDE-2
1 68632U 26074F   26114.31192889  .00008634  00000+0  35561-3 0  9992
2 68632  60.0319  24.8108 0018667 341.5273  18.5127 15.24713371  2563
MISR-C-2
1 68633U 26074G   26114.30735204  .00009156  00000+0  37197-3 0  9993
2 68633  60.0226  24.7637 0019389 347.7591  12.3016 15.25099242  2564
AGGIESAT6 (AGS6)
1 68634U 26074H   26114.10656852  .00007960  00000+0  32114-3 0  9998
2 68634  60.0217  25.4954 0020260 350.9613   9.1100 15.25482770  2544
CANVAS
1 68635U 26074J   26114.31837178  .00010122  00000+0  42156-3 0  9995
2 68635  60.0243  24.8265 0020129 335.4990  24.5131 15.24144203  2575
QIANFAN-109
1 68636U 26075A   26114.56280865  .00000098  00000+0  40031-4 0  9991
2 68636  88.9898 326.7616 0014907 157.8616 202.3220 14.19020180  2411
QIANFAN-110
1 68637U 26075B   26114.56136501  .00000099  00000+0  41717-4 0  9992
2 68637  88.9899 326.7616 0015725 158.8167 201.3676 14.17658442  2414
QIANFAN-111
1 68638U 26075C   26114.62580831  .00000109  00000+0  45189-4 0  9998
2 68638  88.9899 326.7526 0015630 160.9573 199.2205 14.19331178  2425
QIANFAN-112
1 68639U 26075D   26114.62755997  .00000121  00000+0  50780-4 0  9993
2 68639  88.9900 326.7528 0016098 159.2231 200.9616 14.19387631  2423
