[{"OBJECT_NAME":"STARLINK-37284","OBJECT_ID":"2026-073X","EPOCH":"2026-04-24T18:26:09.127680","MEAN_MOTION":15.80883364,"ECCENTRICITY":0.0001272,"INCLINATION":97.2835,"RA_OF_ASC_NODE":312.8669,"ARG_OF_PERICENTER":89.8601,"MEAN_ANOMALY":270.2813,"EPHEMERIS_TYPE":0,"CLASSIFICATION_TYPE":"U","NORAD_CAT_ID":68623,"ELEMENT_SET_NO":999,"REV_AT_EPOCH":281,"BSTAR":0.00090754,"MEAN_MOTION_DOT":0.0017783,"MEAN_MOTION_DDOT":0},{"OBJECT_NAME":"STARLINK-37231","OBJECT_ID":"2026-073Y","EPOCH":"2026-04-24T12:52:42.125952","MEAN_MOTION":15.75232335,"ECCENTRICITY":0.0001391,"INCLINATION":97.2856,"RA_OF_ASC_NODE":312.5696,"ARG_OF_PERICENTER":84.5034,"MEAN_ANOMALY":275.639,"EPHEMERIS_TYPE":0,"CLASSIFICATION_TYPE":"U","NORAD_CAT_ID":68624,"ELEMENT_SET_NO":999,"REV_AT_EPOCH":277,"BSTAR":0.00093167,"MEAN_MOTION_DOT":0.00141418,"MEAN_MOTION_DDOT":0},{"OBJECT_NAME":"STARLINK-37249","OBJECT_ID":"2026-073Z","EPOCH":"2026-04-24T00:10:08.320800","MEAN_MOTION":15.80847987,"ECCENTRICITY":0.0001613,"INCLINATION":97.2834,"RA_OF_ASC_NODE":312.0659,"ARG_OF_PERICENTER":65.8106,"MEAN_ANOMALY":294.3331,"EPHEMERIS_TYPE":0,"CLASSIFICATION_TYPE":"U","NORAD_CAT_ID":68625,"ELEMENT_SET_NO":999,"REV_AT_EPOCH":269,"BSTAR":0.00067881,"MEAN_MOTION_DOT":0.00132062,"MEAN_MOTION_DDOT":0},{"OBJECT_NAME":"STARLINK-37285","OBJECT_ID":"2026-073AA","EPOCH":"2026-04-24T12:49:08.805216","MEAN_MOTION":15.75215606,"ECCENTRICITY":0.0001392,"INCLINATION":97.2854,"RA_OF_ASC_NODE":312.5726,"ARG_OF_PERICENTER":71.082,"MEAN_ANOMALY":289.0596,"EPHEMERIS_TYPE":0,"CLASSIFICATION_TYPE":"U","NORAD_CAT_ID":68626,"ELEMENT_SET_NO":999,"REV_AT_EPOCH":277,"BSTAR":0.00072363,"MEAN_MOTION_DOT":0.00109316,"MEAN_MOTION_DDOT":0},{"OBJECT_NAME":"STP-S29A OBJECT A","OBJECT_ID":"2026-074A","EPOCH":"2026-04-23T23:58:01.817760","MEAN_MOTION":15.23329947,"ECCENTRICITY":0.001768,"INCLINATION":60.0197,"RA_OF_ASC_NODE":26.109,"ARG_OF_PERICENTER":323.9749,"MEAN_ANOMALY":36.0138,"EPHEMERIS_TYPE":0,"CLASSIFICATION_TYPE":"U","NORAD_CAT_ID":68627,"ELEMENT_SET_NO":999,"REV_AT_EPOCH":252,"BSTAR":0.00026503,"MEAN_MOTION_DOT":6.09e-5,"MEAN_MOTION_DDOT":0},{"OBJECT_NAME":"MISR-C-1","OBJECT_ID":"2026-074B","EPOCH":"2026-04-24T03:05:28.171392","MEAN_MOTION":15.23423068,"ECCENTRICITY":0.0016202,"INCLINATION":60.0248,"RA_OF_ASC_NODE":25.6162,"ARG_OF_PERICENTER":327.0533,"MEAN_ANOMALY":32.9536,"EPHEMERIS_TYPE":0,"CLASSIFICATION_TYPE":"U","NORAD_CAT_ID":68628,"ELEMENT_SET_NO":999,"REV_AT_EPOCH":253,"BSTAR":0.00030386,"MEAN_MOTION_DOT":7.041e-5,"MEAN_MOTION_DDOT":0},{"OBJECT_NAME":"RAWHIDE-1","OBJECT_ID":"2026-074C","EPOCH":"2026-04-24T04:33:03.104064","MEAN_MOTION":15.23896735,"ECCENTRICITY":0.0019624,"INCLINATION":60.0231,"RA_OF_ASC_NODE":25.3368,"ARG_OF_PERICENTER":331.9352,"MEAN_ANOMALY":28.0669,"EPHEMERIS_TYPE":0,"CLASSIFICATION_TYPE":"U","NORAD_CAT_ID":68629,"ELEMENT_SET_NO":999,"REV_AT_EPOCH":255,"BSTAR":0.00035507,"MEAN_MOTION_DOT":8.412e-5,"MEAN_MOTION_DDOT":0},{"OBJECT_NAME":"STPSAT-7","OBJECT_ID":"2026-074D","EPOCH":"2026-04-24T02:54:12.204576","MEAN_MOTION":15.2411152,"ECCENTRICITY":0.0017788,"INCLINATION":60.0233,"RA_OF_ASC_NODE":25.5736,"ARG_OF_PERICENTER":336.5702,"MEAN_ANOMALY":23.4566,"EPHEMERIS_TYPE":0,"CLASSIFICATION_TYPE":"U","NORAD_CAT_ID":68630,"ELEMENT_SET_NO":999,"REV_AT_EPOCH":253,"BSTAR":0.00019545,"MEAN_MOTION_DOT":4.523e-5,"MEAN_MOTION_DDOT":0},{"OBJECT_NAME":"STP-S29A OBJECT E","OBJECT_ID":"2026-074E","EPOCH":"2026-04-24T06:03:00.578592","MEAN_MOTION":15.24103045,"ECCENTRICITY":0.0018375,"INCLINATION":60.0227,"RA_OF_ASC_NODE":25.0676,"ARG_OF_PERICENTER":336.5934,"MEAN_ANOMALY":23.4308,"EPHEMERIS_TYPE":0,"CLASSIFICATION_TYPE":"U","NORAD_CAT_ID":68631,"ELEMENT_SET_NO":999,"REV_AT_EPOCH":256,"BSTAR":0.00013795,"MEAN_MOTION_DOT":3.106e-5,"MEAN_MOTION_DDOT":0},{"OBJECT_NAME":"RAWHIDE-2","OBJECT_ID":"2026-074F","EPOCH":"2026-04-24T07:29:10.656096","MEAN_MOTION":15.24713371,"ECCENTRICITY":0.0018667,"INCLINATION":60.0319,"RA_OF_ASC_NODE":24.8108,"ARG_OF_PERICENTER":341.5273,"MEAN_ANOMALY":18.5127,"EPHEMERIS_TYPE":0,"CLASSIFICATION_TYPE":"U","NORAD_CAT_ID":68632,"ELEMENT_SET_NO":999,"REV_AT_EPOCH":256,"BSTAR":0.00035561,"MEAN_MOTION_DOT":8.634e-5,"MEAN_MOTION_DDOT":0},{"OBJECT_NAME":"MISR-C-2","OBJECT_ID":"2026-074G","EPOCH":"2026-04-24T07:22:35.216256","MEAN_MOTION":15.25099242,"ECCENTRICITY":0.0019389,"INCLINATION":60.0226,"RA_OF_ASC_NODE":24.7637,"ARG_OF_PERICENTER":347.7591,"MEAN_ANOMALY":12.3016,"EPHEMERIS_TYPE":0,"CLASSIFICATION_TYPE":"U","NORAD_CAT_ID":68633,"ELEMENT_SET_NO":999,"REV_AT_EPOCH":256,"BSTAR":0.00037197,"MEAN_MOTION_DOT":9.156e-5,"MEAN_MOTION_DDOT":0},{"OBJECT_NAME":"AGGIESAT6 (AGS6)","OBJECT_ID":"2026-074H","EPOCH":"2026-04-24T02:33:27.520128","MEAN_MOTION":15.2548277,"ECCENTRICITY":0.002026,"INCLINATION":60.0217,"RA_OF_ASC_NODE":25.4954,"ARG_OF_PERICENTER":350.9613,"MEAN_ANOMALY":9.11,"EPHEMERIS_TYPE":0,"CLASSIFICATION_TYPE":"U","NORAD_CAT_ID":68634,"ELEMENT_SET_NO":999,"REV_AT_EPOCH":254,"BSTAR":0.00032114,"MEAN_MOTION_DOT":7.96e-5,"MEAN_MOTION_DDOT":0},{"OBJECT_NAME":"CANVAS","OBJECT_ID":"2026-074J","EPOCH":"2026-04-24T07:38:27.321792","MEAN_MOTION":15.24144203,"ECCENTRICITY":0.0020129,"INCLINATION":60.0243,"RA_OF_ASC_NODE":24.8265,"ARG_OF_PERICENTER":335.499,"MEAN_ANOMALY":24.5131,"EPHEMERIS_TYPE":0,"CLASSIFICATION_TYPE":"U","NORAD_CAT_ID":68635,"ELEMENT_SET_NO":999,"REV_AT_EPOCH":257,"BSTAR":0.00042156,"MEAN_MOTION_DOT":0.00010122,"MEAN_MOTION_DDOT":0},{"OBJECT_NAME":"QIANFAN-109","OBJECT_ID":"2026-075A","EPOCH":"2026-04-24T13:30:26.667360","MEAN_MOTION":14.1902018,"ECCENTRICITY":0.0014907,"INCLINATION":88.9898,"RA_OF_ASC_NODE":326.7616,"ARG_OF_PERICENTER":157.8616,"MEAN_ANOMALY":202.322,"EPHEMERIS_TYPE":0,"CLASSIFICATION_TYPE":"U","NORAD_CAT_ID":68636,"ELEMENT_SET_NO":999,"REV_AT_EPOCH":241,"BSTAR":4.0031e-5,"MEAN_MOTION_DOT":9.8e-7,"MEAN_MOTION_DDOT":0},{"OBJECT_NAME":"QIANFAN-110","OBJECT_ID":"2026-075B","EPOCH":"2026-04-24T13:28:21.936864","MEAN_MOTION":14.17658442,"ECCENTRICITY":0.0015725,"INCLINATION":88.9899,"RA_OF_ASC_NODE":326.7616,"ARG_OF_PERICENTER":158.8167,"MEAN_ANOMALY":201.3676,"EPHEMERIS_TYPE":0,"CLASSIFICATION_TYPE":"U","NORAD_CAT_ID":68637,"ELEMENT_SET_NO":999,"REV_AT_EPOCH":241,"BSTAR":4.1717e-5,"MEAN_MOTION_DOT":9.9e-7,"MEAN_MOTION_DDOT":0},{"OBJECT_NAME":"QIANFAN-111","OBJECT_ID":"2026-075C","EPOCH":"2026-04-24T15:01:09.837984","MEAN_MOTION":14.19331178,"ECCENTRICITY":0.001563,"INCLINATION":88.9899,"RA_OF_ASC_NODE":326.7526,"ARG_OF_PERICENTER":160.9573,"MEAN_ANOMALY":199.2205,"EPHEMERIS_TYPE":0,"CLASSIFICATION_TYPE":"U","NORAD_CAT_ID":68638,"ELEMENT_SET_NO":999,"REV_AT_EPOCH":242,"BSTAR":4.5189e-5,"MEAN_MOTION_DOT":1.09e-6,"MEAN_MOTION_DDOT":0},{"OBJECT_NAME":"QIANFAN-112","OBJECT_ID":"2026-075D","EPOCH":"2026-04-24T15:03:41.181408","MEAN_MOTION":14.19387631,"ECCENTRICITY":0.0016098,"INCLINATION":88.99,"RA_OF_ASC_NODE":326.7528,"ARG_OF_PERICENTER":159.2231,"MEAN_ANOMALY":200.9616,"EPHEMERIS_TYPE":0,"CLASSIFICATION_TYPE":"U","NORAD_CAT_ID":68639,"ELEMENT_SET_NO":999,"REV_AT_EPOCH":242,"BSTAR":5.078e-5,"MEAN_MOTION_DOT":1.21e-6,"MEAN_MOTION_DDOT":0}]
